STARLINK-1020
1 44725U 19074N   26092.69721794  .00074422  00000+0  23814-2 0  9995
2 44725  53.1585  92.2579 0002593  87.8962 272.2336 15.31762660352185
STARLINK-1169
1 45061U 20006T   26092.62266480  .00028271  00000+0  91761-3 0  9993
2 45061  53.1573 169.7430 0002693  38.0394 322.0797 15.31758712340219
STARLINK-1661
1 46355U 20062AG  26092.75955929  .00078068  00000+0  24953-2 0  9996
2 46355  53.1570 259.1124 0001196 344.3135  15.7829 15.31776699308085
STARLINK-2486
1 48143U 21027BD  26092.87371692  .00079783  00000+0  25474-2 0  9991
2 48143  53.1604 348.6365 0001555 165.4983 194.6063 15.31800531277112
STARLINK-35873
1 67860U 26034L   26092.83335647 -.01139443  00000+0 -40170-1 0  9999
2 67860  53.1601  92.3909 0000893 116.1388  44.6296 15.31782083  6000
